STARLINK-34495          
1 64428U 25129S   25182.58335648 -.01538071  00000+0 -15904-1 0  9999
2 64428  70.0005 354.3404 0003544 269.0935 158.5423 15.67360104  3522
STARLINK-34501          
1 64429U 25129T   25182.58335648 -.01537554  00000+0 -15898-1 0  9997
2 64429  70.0005 354.3377 0003465 269.4762 160.0735 15.67361152  3524
STARLINK-34441          
1 64430U 25129U   25182.58335648 -.01540192  00000+0 -15928-1 0  9995
2 64430  70.0002 354.3355 0003489 269.3522 162.1154 15.67361624  3520
STARLINK-34524          
1 64431U 25129V   25182.58335648 -.01541016  00000+0 -15937-1 0  9992
2 64431  70.0003 354.3329 0003490 270.5073 162.8762 15.67362433  3419
STARLINK-34506          
1 64432U 25129W   25182.58335648 -.01544933  00000+0 -15980-1 0  9992
2 64432  70.0002 354.3314 0003596 270.7532 164.5471 15.67364638  3305
STARLINK-34451          
1 64433U 25129X   25182.58335648 -.01542177  00000+0 -15952-1 0  9990
2 64433  70.0005 354.3222 0003331 270.4514 172.5147 15.67362045  3366
STARLINK-34472          
1 64434U 25129Y   25182.58335648 -.01585568  00000+0 -16442-1 0  9997
2 64434  70.0048 354.3302 0003117 272.4884 164.7230 15.67385722  3528
STARLINK-34478          
1 64435U 25129Z   25182.58335648 -.01544932  00000+0 -15982-1 0  9996
2 64435  70.0002 354.3271 0003448 269.3827 169.7508 15.67363469  3418
STARLINK-34396          
1 64436U 25129AA  25182.58335648 -.01473934  00000+0 -13846-1 0  9997
2 64436  69.9995 354.1021 0003579 265.0083   4.2106 15.70048538  3474
STARLINK-34507          
1 64437U 25129AB  25182.58335648 -.01539155  00000+0 -15916-1 0  9996
2 64437  70.0002 354.3249 0003442 270.3530 170.6954 15.67362231  3526
STARLINK-34465          
1 64438U 25130A   25182.58335648 -.01045357  00000+0 -65628-2 0  9991
2 64438  53.1549 184.8010 0001185  70.8437 108.1461 15.78415941  3357
STARLINK-34456          
1 64439U 25130B   25182.58335648 -.01060590  00000+0 -66761-2 0  9997
2 64439  53.1547 184.7963 0001309  69.5446 111.6683 15.78390816  3364
STARLINK-34410          
1 64440U 25130C   25182.58335648 -.01079202  00000+0 -68312-2 0  9993
2 64440  53.1547 184.7910 0001272  70.0452 113.7959 15.78310613  3367
STARLINK-34453          
1 64441U 25130D   25182.58335648 -.01090577  00000+0 -69367-2 0  9993
2 64441  53.1546 184.7851 0001238  69.7649 116.6414 15.78230084  3301
STARLINK-34404          
1 64442U 25130E   25182.58335648 -.01095860  00000+0 -69868-2 0  9990
2 64442  53.1547 184.7806 0001380  69.8692 118.7917 15.78188613  3367
STARLINK-34403          
1 64443U 25130F   25182.61137676 -.00369865  00000+0 -22190-2 0  9991
2 64443  53.1547 184.6141 0000388  84.9667 275.1399 15.78064426  2126
STARLINK-34399          
1 64444U 25130G   25182.58335648 -.01156326  00000+0 -75760-2 0  9995
2 64444  53.1550 184.7500 0001338  72.6766 130.7123 15.77725731  3361
STARLINK-34398          
1 64445U 25130H   25182.58335648 -.01093195  00000+0 -69831-2 0  9992
2 64445  53.1549 184.7760 0001346  70.8387 120.0917 15.78140855  3302
STARLINK-34402          
1 64446U 25130J   25182.58335648 -.01105451  00000+0 -70929-2 0  9992
2 64446  53.1547 184.7704 0001122  66.0114 127.3545 15.78072726  3348
STARLINK-34450          
1 64447U 25130K   25182.58335648 -.01123363  00000+0 -72439-2 0  9993
2 64447  53.1547 184.7656 0001255  71.6122 124.2118 15.78002232  3340
STARLINK-34433          
1 64448U 25130L   25182.58335648 -.01134467  00000+0 -73574-2 0  9992
2 64448  53.1547 184.7599 0001331  71.5002 126.9247 15.77900806  3365
STARLINK-34459          
1 64449U 25130M   25182.58335648 -.01166171  00000+0 -76834-2 0  9992
2 64449  53.1551 184.7447 0001202  73.3317 132.5631 15.77626007  3367
STARLINK-34361          
1 64450U 25130N   25182.58335648 -.01226982  00000+0 -81396-2 0  9990
2 64450  53.1550 184.7398 0001133  82.1541 125.9758 15.77617595  3305
STARLINK-34392          
1 64451U 25130P   25182.60969496 -.00462102  00000+0 -28478-2 0  9995
2 64451  53.1545 184.6019 0001225  52.8510 307.2623 15.77708696  2129
STARLINK-34367          
1 64452U 25130Q   25182.58335648 -.01206380  00000+0 -80925-2 0  9999
2 64452  53.1549 184.7250 0001232  74.6002 140.6590 15.77321067  3359
STARLINK-34221          
1 64453U 25130R   25182.60927412 -.00452539  00000+0 -27965-2 0  9992
2 64453  53.1544 184.5990 0001724  42.9539 317.1616 15.77619567  2122
STARLINK-34282          
1 64454U 25130S   25182.58335648 -.01216031  00000+0 -81957-2 0  9991
2 64454  53.1550 184.7198 0001310  74.9528 142.6405 15.77238494  3197
STARLINK-34295          
1 64455U 25130T   25182.58335648 -.01239974  00000+0 -84217-2 0  9995
2 64455  53.1548 184.7148 0001172  74.6802 145.3924 15.77125560  3351
STARLINK-34430          
1 64456U 25130U   25182.58335648 -.01248199  00000+0 -85018-2 0  9995
2 64456  53.1548 184.7105 0001137  73.8597 148.3482 15.77082066  3342
STARLINK-34445          
1 64457U 25130V   25182.58335648 -.01258372  00000+0 -86052-2 0  9999
2 64457  53.1546 184.7055 0001186  76.5972 147.8265 15.77017505  3356
STARLINK-34439          
1 64458U 25130W   25182.58335648 -.01294705  00000+0 -87499-2 0  9996
2 64458  53.1549 184.7004 0001190  74.7145 152.1002 15.76907974  3345
STARLINK-34421          
1 64459U 25130X   25182.58335648 -.01326996  00000+0 -90368-2 0  9994
2 64459  53.1548 184.6952 0001174  76.2305 152.9625 15.76801700  3342
STARLINK-34423          
1 64460U 25130Y   25182.58335648 -.01352480  00000+0 -92736-2 0  9994
2 64460  53.1550 184.6905 0001181  74.5254 156.9826 15.76699404  3362
STARLINK-34418          
1 64461U 25130Z   25182.58335648 -.01360709  00000+0 -93649-2 0  9992
2 64461  53.1552 184.6861 0001051  71.6597 161.9960 15.76633708  3348
STARLINK-34336          
1 64462U 25130AA  25182.58335648  .00020269  00000+0  11916-3 0  9992
2 64462  53.1541 184.6775 0001005  77.5150 160.1712 15.78269577  3369
STARLINK-34400          
1 64463U 25130AB  25182.58335648 -.01229428  00000+0 -86815-2 0  9993
2 64463  53.1553 184.6723 0001344  71.3698 169.0727 15.76228673  3354
STARLINK-34429          
1 64464U 25130AC  25182.58335648 -.01365968  00000+0 -95162-2 0  9999
2 64464  53.1553 184.6764 0001279  80.3762 157.9016 15.76369372  3347
STARLINK-34449          
1 64465U 25130AD  25182.58335648 -.01289923  00000+0 -90329-2 0  9996
2 64465  53.1554 184.6674 0001362  77.3969 165.3269 15.76100406  3352
COSMOS 2589             
1 64467U 25131A   25182.77387914 -.00000339  00000+0  00000+0 0  9997
2 64467   1.0552 280.6649 3656600 173.8102 207.2599  1.00203192   119
BREEZE-M R/B            
1 64468U 25131B   25173.80781051 -.00000145  00000+0  00000+0 0  9997
2 64468   1.4224 285.7735 3876101 171.5822 241.3112  1.04440359    39
2025-131C               
1 64469U 25131C   25182.54659545  .00005993  00000+0  18529-2 0  9994
2 64469  61.1360 273.4147 6896714 178.2517 187.0692  2.76865180   262
CZ-3B R/B               
1 64470U 25132A   25182.65937493 -.00000244  00000+0  00000+0 0  9997
2 64470   0.0886 262.0131 0001616  36.7263 310.7829  1.00271237   644
CHINASAT 9C             
1 64471U 25132B   25174.44696663  .00024482  11871-5  16405-2 0  9999
2 64471  27.6360  93.9323 7344542 181.4842 173.4852  2.23218496    89
STARLINK-34493          
1 64472U 25133A   25182.58335648 -.01015041  00000+0 -44932-2 0  9994
2 64472  53.1560 215.8994 0000883  60.2081 325.7897 15.86130817  2563
STARLINK-34492          
1 64473U 25133B   25182.58335648 -.01022336  00000+0 -45217-2 0  9997
2 64473  53.1558 215.8948 0000920  59.6656 328.5294 15.86165159  2561
STARLINK-34474          
1 64474U 25133C   25182.58335648 -.01031306  00000+0 -45578-2 0  9995
2 64474  53.1558 215.8901 0001035  56.6453 333.7630 15.86201655  2543
STARLINK-34523          
1 64475U 25133D   25182.58335648 -.01045770  00000+0 -46218-2 0  9998
2 64475  53.1558 215.8851 0000922  61.9923 330.8386 15.86237698  2545
STARLINK-34496          
1 64476U 25133E   25182.58335648 -.01054031  00000+0 -46547-2 0  9994
2 64476  53.1558 215.8802 0001057  50.4437 344.5916 15.86272139  2567
STARLINK-34375          
1 64477U 25133F   25182.58335648 -.01061066  00000+0 -46825-2 0  9990
2 64477  53.1559 215.8757 0000946  58.5116 338.8306 15.86304664  2565
STARLINK-34490          
1 64478U 25133G   25182.58335648 -.01076836  00000+0 -47454-2 0  9991
2 64478  53.1558 215.8662 0001009  54.0140 347.8508 15.86371120  2564
STARLINK-34528          
1 64479U 25133H   25182.58335648 -.01067240  00000+0 -47052-2 0  9995
2 64479  53.1559 215.8715 0000980  63.6604 335.6918 15.86338946  2540
STARLINK-34518          
1 64480U 25133J   25182.58335648 -.01085012  00000+0 -47790-2 0  9993
2 64480  53.1560 215.8609 0000936  63.2372 341.1014 15.86402293  2406
STARLINK-34526          
1 64481U 25133K   25182.58335648 -.01091659  00000+0 -48042-2 0  9999
2 64481  53.1559 215.8561 0000953  63.8394 342.7746 15.86435609  2452
STARLINK-34527          
1 64482U 25133L   25182.58335648 -.01101225  00000+0 -48437-2 0  9999
2 64482  53.1559 215.8515 0001048  50.3886 358.4911 15.86468953  2563
STARLINK-34420          
1 64483U 25133M   25182.58335648 -.01109905  00000+0 -48800-2 0  9997
2 64483  53.1558 215.8463 0000815  67.2045 344.1005 15.86500755  2563
STARLINK-34509          
1 64484U 25133N   25182.58335648 -.01111747  00000+0 -48822-2 0  9999
2 64484  53.1559 215.8415 0000823  63.8130 349.7232 15.86529608  2569
STARLINK-34409          
1 64485U 25133P   25182.58335648 -.01120668  00000+0 -49184-2 0  9994
2 64485  53.1558 215.8371 0000813  66.3648 349.3749 15.86564021  2568
STARLINK-34520          
1 64486U 25133Q   25182.58335648 -.01127393  00000+0 -49445-2 0  9997
2 64486  53.1558 215.8319 0000815  62.6368 355.4850 15.86594620  2560
STARLINK-34477          
1 64487U 25133R   25182.58335648 -.01135899  00000+0 -49788-2 0  9998
2 64487  53.1558 215.8272 0000898  61.5445 358.8700 15.86627002  2566
